ONEWEB-0195             
1 48240U 21031AG  23259.45622840 -.00000057  00000+0 -18804-3 0  9994
2 48240  87.9002 129.6949 0001893  65.2248 294.9078 13.14502183116155
ONEWEB-0201             
1 48241U 21031AH  23259.14752721  .00000028  00000+0  41536-4 0  9998
2 48241  87.8995 129.7953 0001720  73.3893 286.7426 13.14501749116341
ONEWEB-0207             
1 48242U 21031AJ  23259.57885539  .00000016  00000+0  83191-5 0  9991
2 48242  87.8998 129.6770 0001492  75.9215 284.2081 13.14501817116316
ONEWEB-0208             
1 48243U 21031AK  23259.70888511  .00000340  00000+0  88203-3 0  9997
2 48243  87.8995 129.6682 0001864  68.4092 291.7236 13.14500874116349
ONEWEB-0200             
1 48244U 21031AL  23259.59681152 -.00000158  00000+0 -46037-3 0  9995
2 48244  87.9005 129.6778 0001875  67.4048 292.7280 13.14505892116256
ONEWEB-0217             
1 48245U 21031AM  23259.68985304  .00000143  00000+0  35167-3 0  9996
2 48245  87.9005 129.6447 0002030  66.2422 293.8921 13.14505116116227
ONEWEB-0211             
1 48767U 21045A   23259.60669015  .00000103  00000+0  24055-3 0  9990
2 48767  87.8941  99.2107 0001748  81.2005 278.9323 13.15549615113464
ONEWEB-0223             
1 48768U 21045B   23259.62780295  .00000161  00000+0  39234-3 0  9996
2 48768  87.8939  99.2114 0002142  79.3959 280.7412 13.15549961113469
